[{"OBJECT_NAME":"ONEWEB-0576","OBJECT_ID":"2023-043V","EPOCH":"2026-02-01T20:42:43.741728","MEAN_MOTION":13.16594434,"ECCENTRICITY":0.00016785,"INCLINATION":87.9016,"RA_OF_ASC_NODE":255.7111,"ARG_OF_PERICENTER":78.4666,"MEAN_ANOMALY":281.6653,"EPHEMERIS_TYPE":0,"CLASSIFICATION_TYPE":"U","NORAD_CAT_ID":56065,"ELEMENT_SET_NO":999,"REV_AT_EPOCH":14115,"BSTAR":-0.00016523881,"MEAN_MOTION_DOT":-5.0e-7,"MEAN_MOTION_DDOT":0},{"OBJECT_NAME":"ONEWEB-0577","OBJECT_ID":"2023-043W","EPOCH":"2026-02-01T15:23:32.557056","MEAN_MOTION":13.16593562,"ECCENTRICITY":0.00018782,"INCLINATION":87.9016,"RA_OF_ASC_NODE":255.7541,"ARG_OF_PERICENTER":61.9944,"MEAN_ANOMALY":298.1376,"EPHEMERIS_TYPE":0,"CLASSIFICATION_TYPE":"U","NORAD_CAT_ID":56066,"ELEMENT_SET_NO":999,"REV_AT_EPOCH":14115,"BSTAR":-0.00011106308,"MEAN_MOTION_DOT":-3.0e-7,"MEAN_MOTION_DDOT":0},{"OBJECT_NAME":"ONEWEB-0578","OBJECT_ID":"2023-043X","EPOCH":"2026-02-01T16:22:37.879968","MEAN_MOTION":13.21824868,"ECCENTRICITY":0.00018352,"INCLINATION":87.9196,"RA_OF_ASC_NODE":271.0047,"ARG_OF_PERICENTER":84.2387,"MEAN_ANOMALY":275.8956,"EPHEMERIS_TYPE":0,"CLASSIFICATION_TYPE":"U","NORAD_CAT_ID":56067,"ELEMENT_SET_NO":999,"REV_AT_EPOCH":14033,"BSTAR":0.00015978139,"MEAN_MOTION_DOT":7.9e-7,"MEAN_MOTION_DDOT":0},{"OBJECT_NAME":"ONEWEB-0579","OBJECT_ID":"2023-043Y","EPOCH":"2026-02-01T16:08:24.972000","MEAN_MOTION":13.2182762,"ECCENTRICITY":0.00012711,"INCLINATION":87.9201,"RA_OF_ASC_NODE":270.9953,"ARG_OF_PERICENTER":78.7863,"MEAN_ANOMALY":281.3414,"EPHEMERIS_TYPE":0,"CLASSIFICATION_TYPE":"U","NORAD_CAT_ID":56068,"ELEMENT_SET_NO":999,"REV_AT_EPOCH":14034,"BSTAR":9.6277705e-5,"MEAN_MOTION_DOT":5.3e-7,"MEAN_MOTION_DDOT":0},{"OBJECT_NAME":"ONEWEB-0581","OBJECT_ID":"2023-043Z","EPOCH":"2026-02-01T15:32:39.691968","MEAN_MOTION":13.16593795,"ECCENTRICITY":0.00015785,"INCLINATION":87.9009,"RA_OF_ASC_NODE":255.765,"ARG_OF_PERICENTER":67.5614,"MEAN_ANOMALY":292.5684,"EPHEMERIS_TYPE":0,"CLASSIFICATION_TYPE":"U","NORAD_CAT_ID":56069,"ELEMENT_SET_NO":999,"REV_AT_EPOCH":14112,"BSTAR":1.2567779e-5,"MEAN_MOTION_DOT":1.8e-7,"MEAN_MOTION_DDOT":0},{"OBJECT_NAME":"ONEWEB-0609","OBJECT_ID":"2023-043AA","EPOCH":"2026-02-01T17:24:56.321568","MEAN_MOTION":13.15548674,"ECCENTRICITY":0.0001568,"INCLINATION":87.8996,"RA_OF_ASC_NODE":286.2629,"ARG_OF_PERICENTER":81.7271,"MEAN_ANOMALY":278.4037,"EPHEMERIS_TYPE":0,"CLASSIFICATION_TYPE":"U","NORAD_CAT_ID":56070,"ELEMENT_SET_NO":999,"REV_AT_EPOCH":13862,"BSTAR":-0.00038228066,"MEAN_MOTION_DOT":-1.31e-6,"MEAN_MOTION_DDOT":0},{"OBJECT_NAME":"ONEWEB-0613","OBJECT_ID":"2023-043AB","EPOCH":"2026-02-01T17:18:06.016608","MEAN_MOTION":13.15548451,"ECCENTRICITY":0.00012758,"INCLINATION":87.8995,"RA_OF_ASC_NODE":286.2743,"ARG_OF_PERICENTER":80.1818,"MEAN_ANOMALY":279.9456,"EPHEMERIS_TYPE":0,"CLASSIFICATION_TYPE":"U","NORAD_CAT_ID":56071,"ELEMENT_SET_NO":999,"REV_AT_EPOCH":13862,"BSTAR":-0.00016791927,"MEAN_MOTION_DOT":-5.0e-7,"MEAN_MOTION_DDOT":0},{"OBJECT_NAME":"ONEWEB-0630","OBJECT_ID":"2023-043AC","EPOCH":"2026-02-01T17:11:16.014912","MEAN_MOTION":13.15548607,"ECCENTRICITY":0.0001331,"INCLINATION":87.8989,"RA_OF_ASC_NODE":286.2452,"ARG_OF_PERICENTER":83.7328,"MEAN_ANOMALY":276.3954,"EPHEMERIS_TYPE":0,"CLASSIFICATION_TYPE":"U","NORAD_CAT_ID":56072,"ELEMENT_SET_NO":999,"REV_AT_EPOCH":13861,"BSTAR":0.0011727301,"MEAN_MOTION_DOT":4.54e-6,"MEAN_MOTION_DDOT":0},{"OBJECT_NAME":"ONEWEB-0632","OBJECT_ID":"2023-043AD","EPOCH":"2026-02-01T17:04:24.140064","MEAN_MOTION":13.15548139,"ECCENTRICITY":0.00015693,"INCLINATION":87.8992,"RA_OF_ASC_NODE":286.264,"ARG_OF_PERICENTER":70.8548,"MEAN_ANOMALY":289.2752,"EPHEMERIS_TYPE":0,"CLASSIFICATION_TYPE":"U","NORAD_CAT_ID":56073,"ELEMENT_SET_NO":999,"REV_AT_EPOCH":13861,"BSTAR":3.334813e-6,"MEAN_MOTION_DOT":1.4e-7,"MEAN_MOTION_DDOT":0},{"OBJECT_NAME":"ONEWEB-0633","OBJECT_ID":"2023-043AE","EPOCH":"2026-02-01T18:44:48.923520","MEAN_MOTION":13.15548504,"ECCENTRICITY":0.00011917,"INCLINATION":87.8996,"RA_OF_ASC_NODE":286.2144,"ARG_OF_PERICENTER":89.232,"MEAN_ANOMALY":270.8947,"EPHEMERIS_TYPE":0,"CLASSIFICATION_TYPE":"U","NORAD_CAT_ID":56074,"ELEMENT_SET_NO":999,"REV_AT_EPOCH":13860,"BSTAR":3.7491837e-5,"MEAN_MOTION_DOT":2.7e-7,"MEAN_MOTION_DDOT":0},{"OBJECT_NAME":"ONEWEB-0634","OBJECT_ID":"2023-043AF","EPOCH":"2026-02-01T18:24:16.034400","MEAN_MOTION":13.155486,"ECCENTRICITY":0.00017082,"INCLINATION":87.8994,"RA_OF_ASC_NODE":286.2687,"ARG_OF_PERICENTER":87.6416,"MEAN_ANOMALY":272.491,"EPHEMERIS_TYPE":0,"CLASSIFICATION_TYPE":"U","NORAD_CAT_ID":56075,"ELEMENT_SET_NO":999,"REV_AT_EPOCH":13859,"BSTAR":0.0005027587,"MEAN_MOTION_DOT":2.02e-6,"MEAN_MOTION_DDOT":0},{"OBJECT_NAME":"ONEWEB-0635","OBJECT_ID":"2023-043AG","EPOCH":"2026-02-01T18:17:24.704736","MEAN_MOTION":13.15548341,"ECCENTRICITY":0.00016512,"INCLINATION":87.8992,"RA_OF_ASC_NODE":286.2226,"ARG_OF_PERICENTER":67.3488,"MEAN_ANOMALY":292.7817,"EPHEMERIS_TYPE":0,"CLASSIFICATION_TYPE":"U","NORAD_CAT_ID":56076,"ELEMENT_SET_NO":999,"REV_AT_EPOCH":13862,"BSTAR":0.00050145678,"MEAN_MOTION_DOT":2.02e-6,"MEAN_MOTION_DDOT":0},{"OBJECT_NAME":"ONEWEB-0636","OBJECT_ID":"2023-043AH","EPOCH":"2026-02-01T18:06:00.191232","MEAN_MOTION":13.15547901,"ECCENTRICITY":0.00016451,"INCLINATION":87.8986,"RA_OF_ASC_NODE":286.2401,"ARG_OF_PERICENTER":70.8629,"MEAN_ANOMALY":289.2679,"EPHEMERIS_TYPE":0,"CLASSIFICATION_TYPE":"U","NORAD_CAT_ID":56077,"ELEMENT_SET_NO":999,"REV_AT_EPOCH":13860,"BSTAR":0.00029902274,"MEAN_MOTION_DOT":1.25e-6,"MEAN_MOTION_DDOT":0},{"OBJECT_NAME":"ONEWEB-0637","OBJECT_ID":"2023-043AJ","EPOCH":"2026-02-01T17:56:54.399840","MEAN_MOTION":13.15547626,"ECCENTRICITY":0.00018567,"INCLINATION":87.8989,"RA_OF_ASC_NODE":286.2587,"ARG_OF_PERICENTER":77.0639,"MEAN_ANOMALY":283.0699,"EPHEMERIS_TYPE":0,"CLASSIFICATION_TYPE":"U","NORAD_CAT_ID":56078,"ELEMENT_SET_NO":999,"REV_AT_EPOCH":13862,"BSTAR":7.6889711e-5,"MEAN_MOTION_DOT":4.2e-7,"MEAN_MOTION_DDOT":0},{"OBJECT_NAME":"ONEWEB-0647","OBJECT_ID":"2023-043AK","EPOCH":"2026-02-01T17:50:02.534496","MEAN_MOTION":13.15548112,"ECCENTRICITY":0.00014766,"INCLINATION":87.8985,"RA_OF_ASC_NODE":286.2726,"ARG_OF_PERICENTER":73.9095,"MEAN_ANOMALY":286.2198,"EPHEMERIS_TYPE":0,"CLASSIFICATION_TYPE":"U","NORAD_CAT_ID":56079,"ELEMENT_SET_NO":999,"REV_AT_EPOCH":13861,"BSTAR":2.2963265e-5,"MEAN_MOTION_DOT":2.1e-7,"MEAN_MOTION_DDOT":0},{"OBJECT_NAME":"ONEWEB-0651","OBJECT_ID":"2023-043AL","EPOCH":"2026-02-01T17:43:12.169056","MEAN_MOTION":13.15548158,"ECCENTRICITY":0.00017503,"INCLINATION":87.8988,"RA_OF_ASC_NODE":286.2677,"ARG_OF_PERICENTER":71.9484,"MEAN_ANOMALY":288.1837,"EPHEMERIS_TYPE":0,"CLASSIFICATION_TYPE":"U","NORAD_CAT_ID":56080,"ELEMENT_SET_NO":999,"REV_AT_EPOCH":13981,"BSTAR":-0.00012589414,"MEAN_MOTION_DOT":-3.5e-7,"MEAN_MOTION_DDOT":0},{"OBJECT_NAME":"ONEWEB-0718","OBJECT_ID":"2023-043AM","EPOCH":"2026-02-01T17:36:20.944800","MEAN_MOTION":13.15549717,"ECCENTRICITY":0.00018124,"INCLINATION":87.8988,"RA_OF_ASC_NODE":286.2491,"ARG_OF_PERICENTER":95.5555,"MEAN_ANOMALY":264.5783,"EPHEMERIS_TYPE":0,"CLASSIFICATION_TYPE":"U","NORAD_CAT_ID":56081,"ELEMENT_SET_NO":999,"REV_AT_EPOCH":13862,"BSTAR":-0.00013893594,"MEAN_MOTION_DOT":-3.9e-7,"MEAN_MOTION_DDOT":0},{"OBJECT_NAME":"ONEWEB-0561","OBJECT_ID":"2023-068A","EPOCH":"2026-02-01T19:41:20.689440","MEAN_MOTION":13.20769388,"ECCENTRICITY":0.00016257,"INCLINATION":87.9217,"RA_OF_ASC_NODE":301.46,"ARG_OF_PERICENTER":63.089,"MEAN_ANOMALY":297.0409,"EPHEMERIS_TYPE":0,"CLASSIFICATION_TYPE":"U","NORAD_CAT_ID":56710,"ELEMENT_SET_NO":999,"REV_AT_EPOCH":13163,"BSTAR":0.00010476806,"MEAN_MOTION_DOT":5.6e-7,"MEAN_MOTION_DDOT":0},{"OBJECT_NAME":"ONEWEB-0668","OBJECT_ID":"2023-068B","EPOCH":"2026-02-01T14:56:11.138496","MEAN_MOTION":13.16593658,"ECCENTRICITY":0.00020092,"INCLINATION":87.9025,"RA_OF_ASC_NODE":255.7487,"ARG_OF_PERICENTER":93.7004,"MEAN_ANOMALY":266.4357,"EPHEMERIS_TYPE":0,"CLASSIFICATION_TYPE":"U","NORAD_CAT_ID":56711,"ELEMENT_SET_NO":999,"REV_AT_EPOCH":13394,"BSTAR":0.0001249317,"MEAN_MOTION_DOT":6.1e-7,"MEAN_MOTION_DDOT":0},{"OBJECT_NAME":"ONEWEB-0676","OBJECT_ID":"2023-068C","EPOCH":"2026-02-01T15:07:34.552128","MEAN_MOTION":13.16595432,"ECCENTRICITY":0.00016204,"INCLINATION":87.9013,"RA_OF_ASC_NODE":255.7635,"ARG_OF_PERICENTER":73.3285,"MEAN_ANOMALY":286.8024,"EPHEMERIS_TYPE":0,"CLASSIFICATION_TYPE":"U","NORAD_CAT_ID":56712,"ELEMENT_SET_NO":999,"REV_AT_EPOCH":13386,"BSTAR":2.62437e-7,"MEAN_MOTION_DOT":1.3e-7,"MEAN_MOTION_DDOT":0},{"OBJECT_NAME":"ONEWEB-0677","OBJECT_ID":"2023-068D","EPOCH":"2026-02-01T19:25:25.583232","MEAN_MOTION":13.20774216,"ECCENTRICITY":0.00018225,"INCLINATION":87.9228,"RA_OF_ASC_NODE":301.4516,"ARG_OF_PERICENTER":75.5245,"MEAN_ANOMALY":284.6091,"EPHEMERIS_TYPE":0,"CLASSIFICATION_TYPE":"U","NORAD_CAT_ID":56713,"ELEMENT_SET_NO":999,"REV_AT_EPOCH":13193,"BSTAR":-0.00014299886,"MEAN_MOTION_DOT":-4.5e-7,"MEAN_MOTION_DDOT":0},{"OBJECT_NAME":"ONEWEB-0678","OBJECT_ID":"2023-068E","EPOCH":"2026-02-01T18:40:14.221632","MEAN_MOTION":13.15548059,"ECCENTRICITY":0.00012485,"INCLINATION":87.8999,"RA_OF_ASC_NODE":286.2195,"ARG_OF_PERICENTER":72.4812,"MEAN_ANOMALY":287.6455,"EPHEMERIS_TYPE":0,"CLASSIFICATION_TYPE":"U","NORAD_CAT_ID":56714,"ELEMENT_SET_NO":999,"REV_AT_EPOCH":13148,"BSTAR":0.00023766994,"MEAN_MOTION_DOT":1.02e-6,"MEAN_MOTION_DDOT":0},{"OBJECT_NAME":"ONEWEB-0679","OBJECT_ID":"2023-068F","EPOCH":"2026-02-01T23:15:29.747520","MEAN_MOTION":13.16592662,"ECCENTRICITY":0.00020555,"INCLINATION":87.9016,"RA_OF_ASC_NODE":255.6788,"ARG_OF_PERICENTER":80.1015,"MEAN_ANOMALY":280.0347,"EPHEMERIS_TYPE":0,"CLASSIFICATION_TYPE":"U","NORAD_CAT_ID":56715,"ELEMENT_SET_NO":999,"REV_AT_EPOCH":13393,"BSTAR":-0.00030786575,"MEAN_MOTION_DOT":-1.05e-6,"MEAN_MOTION_DDOT":0}]
